{"type":"FeatureCollection","features":[{"type":"Feature","properties":{"name":"Kalookan City","cstc":"CAMANAVA"},"geometry":{"type":"MultiPolygon","coordinates":[[[[121.024902,14.688371],[120.997833,14.665091],[120.989517,14.635671],[120.965782,14.63407],[120.963547,14.65871],[120.998177,14.668831],[120.999153,14.68315],[121.010857,14.680672],[121.024902,14.688371]]],[[[121.104263,14.758121],[121.083656,14.738891],[121.050652,14.73723],[121.027969,14.722751],[121.019379,14.705821],[121.006073,14.70872],[121.014473,14.738491],[121.003387,14.742163],[121.040993,14.75597],[121.04097,14.763801],[121.043907,14.77342],[121.062935,14.780476],[121.072906,14.76565],[121.104263,14.758121]]]]}},{"type":"Feature","properties":{"name":"Las Piñas","cstc":"MUNTAPARLAS"},"geometry":{"type":"Polygon","coordinates":[[[121.023636,14.43496],[121.008476,14.392521],[121.012596,14.38144],[120.982979,14.43397],[120.972496,14.439721],[120.964607,14.465581],[120.969597,14.475469],[120.98098,14.489544],[121.001511,14.468861],[121.001266,14.45845],[121.023636,14.43496]]]}},{"type":"Feature","properties":{"name":"Makati City","cstc":"PAMAMAZON"},"geometry":{"type":"Polygon","coordinates":[[[121.044456,14.56964],[121.066032,14.56],[121.063683,14.554871],[121.065781,14.538721],[121.055717,14.52472],[121.039383,14.514952],[121.021561,14.53262],[121.01548,14.53194],[120.997253,14.56345],[121.014877,14.581111],[121.032082,14.568991],[121.044456,14.56964]]]}},{"type":"Feature","properties":{"name":"Malabon","cstc":"CAMANAVA"},"geometry":{"type":"Polygon","coordinates":[[[120.957832,14.68747],[120.98304,14.66886],[120.999153,14.68315],[120.998177,14.668831],[120.963547,14.65871],[120.957611,14.645491],[120.925133,14.698871],[120.928207,14.702191],[120.945198,14.681111],[120.957832,14.68747]]]}},{"type":"Feature","properties":{"name":"Mandaluyong","cstc":"PAMAMARISAN"},"geometry":{"type":"Polygon","coordinates":[[[121.057533,14.589121],[121.055008,14.574471],[121.044456,14.56964],[121.032082,14.568991],[121.014877,14.581111],[121.023697,14.595951],[121.032356,14.59158],[121.057121,14.601991],[121.057533,14.589121]]]}},{"type":"Feature","properties":{"name":"Manila","cstc":"PAMAMAZON"},"geometry":{"type":"Polygon","coordinates":[[[120.989517,14.635671],[120.986366,14.62569],[121.014526,14.60496],[121.023697,14.595951],[121.014877,14.581111],[120.997253,14.56345],[120.984436,14.56494],[120.966393,14.586671],[120.958336,14.587501],[120.95446,14.603021],[120.961632,14.633651],[120.965782,14.63407],[120.989517,14.635671]]]}},{"type":"Feature","properties":{"name":"Marikina","cstc":"PAMAMARISAN"},"geometry":{"type":"Polygon","coordinates":[[[121.129913,14.65408],[121.125763,14.6434],[121.109612,14.636042],[121.103119,14.621201],[121.082718,14.62376],[121.07711,14.618041],[121.073456,14.61962],[121.083923,14.654],[121.103783,14.67588],[121.123947,14.67073],[121.129913,14.65408]]]}},{"type":"Feature","properties":{"name":"Muntinlupa","cstc":"MUNTAPARLAS"},"geometry":{"type":"Polygon","coordinates":[[[121.056282,14.467829],[121.050667,14.449461],[121.050743,14.399271],[121.055481,14.37839],[121.042351,14.372351],[121.012833,14.350261],[121.008606,14.357631],[121.012596,14.38144],[121.008476,14.392521],[121.023636,14.43496],[121.039864,14.44407],[121.044617,14.469141],[121.056282,14.467829]]]}},{"type":"Feature","properties":{"name":"Navotas","cstc":"CAMANAVA"},"geometry":{"type":"Polygon","coordinates":[[[120.963547,14.65871],[120.965782,14.63407],[120.961632,14.633651],[120.951385,14.635555],[120.944649,14.65645],[120.916946,14.691933],[120.928207,14.702191],[120.925133,14.698871],[120.957611,14.645491],[120.963547,14.65871]]]}},{"type":"Feature","properties":{"name":"Parañaque","cstc":"MUNTAPARLAS"},"geometry":{"type":"Polygon","coordinates":[[[121.000839,14.509211],[121.001999,14.50024],[121.034576,14.507932],[121.046066,14.501551],[121.044617,14.469141],[121.039864,14.44407],[121.023636,14.43496],[121.001266,14.45845],[121.001511,14.468861],[120.98098,14.489544],[120.989006,14.502492],[120.974266,14.50862],[120.978607,14.53355],[120.998253,14.535],[121.000839,14.509211]]]}},{"type":"Feature","properties":{"name":"Pasay City","cstc":"PAMAMAZON"},"geometry":{"type":"Polygon","coordinates":[[[121.000839,14.509211],[120.998253,14.535],[120.978607,14.53355],[120.978333,14.55611],[120.984436,14.56494],[120.997253,14.56345],[121.01548,14.53194],[121.021561,14.53262],[121.034576,14.507932],[121.001999,14.50024],[121.000839,14.509211]]]}},{"type":"Feature","properties":{"name":"Pasig City","cstc":"PAMAMARISAN"},"geometry":{"type":"Polygon","coordinates":[[[121.103119,14.621201],[121.107857,14.581321],[121.093407,14.568171],[121.100708,14.55101],[121.095612,14.541589],[121.078476,14.54786],[121.063683,14.554871],[121.066032,14.56],[121.044456,14.56964],[121.055008,14.574471],[121.057533,14.589121],[121.078911,14.592381],[121.085342,14.60708],[121.07711,14.618041],[121.082718,14.62376],[121.103119,14.621201]]]}},{"type":"Feature","properties":{"name":"Pateros","cstc":"MUNTAPARLAS"},"geometry":{"type":"Polygon","coordinates":[[[121.078476,14.54786],[121.065781,14.538721],[121.063683,14.554871],[121.078476,14.54786]]]}},{"type":"Feature","properties":{"name":"Quezon City","cstc":"PAMAMAZON"},"geometry":{"type":"Polygon","coordinates":[[[121.120842,14.717669],[121.117043,14.70005],[121.108711,14.697431],[121.103783,14.67588],[121.083923,14.654],[121.073456,14.61962],[121.07711,14.618041],[121.085342,14.60708],[121.078911,14.592381],[121.057533,14.589121],[121.057121,14.601991],[121.047699,14.609751],[121.03524,14.60657],[121.020523,14.613841],[121.014526,14.60496],[120.986366,14.62569],[120.989517,14.635671],[120.997833,14.665091],[121.024902,14.688371],[121.019379,14.705821],[121.027969,14.722751],[121.050652,14.73723],[121.083656,14.738891],[121.104263,14.758121],[121.113884,14.759725],[121.114449,14.740521],[121.126953,14.736251],[121.120842,14.717669]]]}},{"type":"Feature","properties":{"name":"San Juan","cstc":"PAMAMARISAN"},"geometry":{"type":"Polygon","coordinates":[[[121.057121,14.601991],[121.032356,14.59158],[121.023697,14.595951],[121.014526,14.60496],[121.020523,14.613841],[121.03524,14.60657],[121.047699,14.609751],[121.057121,14.601991]]]}},{"type":"Feature","properties":{"name":"Taguig","cstc":"MUNTAPARLAS"},"geometry":{"type":"Polygon","coordinates":[[[121.095612,14.541589],[121.105339,14.53049],[121.094551,14.52527],[121.087906,14.51002],[121.072617,14.51324],[121.062416,14.49431],[121.056282,14.467829],[121.044617,14.469141],[121.046066,14.501551],[121.034576,14.507932],[121.021561,14.53262],[121.039383,14.514952],[121.055717,14.52472],[121.065781,14.538721],[121.078476,14.54786],[121.095612,14.541589]]]}},{"type":"Feature","properties":{"name":"Valenzuela","cstc":"CAMANAVA"},"geometry":{"type":"Polygon","coordinates":[[[121.019379,14.705821],[121.024902,14.688371],[121.010857,14.680672],[120.999153,14.68315],[120.98304,14.66886],[120.957832,14.68747],[120.954819,14.709101],[120.947632,14.70841],[120.935463,14.7305],[120.948387,14.73587],[120.96637,14.728351],[120.975159,14.71244],[120.992958,14.714911],[120.991058,14.732831],[121.003387,14.742163],[121.014473,14.738491],[121.006073,14.70872],[121.019379,14.705821]]]}},{"type":"Feature","properties":{"name":"Zamboanga City","cstc":"ZCIC"},"geometry":{"type":"MultiPolygon","coordinates":[[[[122.16861,6.89417],[122.167503,6.88528],[122.153893,6.88028],[122.144997,6.89167],[122.16861,6.89417]]],[[[122.278488,6.89899],[122.292641,6.88313],[122.287437,6.87324],[122.273483,6.88815],[122.278488,6.89899]]],[[[122.279373,6.98906],[122.285797,6.97765],[122.265228,6.95342],[122.247047,6.96369],[122.233459,6.9645],[122.236267,6.95187],[122.216942,6.93778],[122.205429,6.9395],[122.211838,6.95596],[122.206902,6.96839],[122.224487,6.98892],[122.243553,6.98761],[122.271004,6.99919],[122.279373,6.98906]]],[[[121.90139,7.14597],[121.95623,7.14909],[122.033691,7.15074],[122.071938,7.14947],[122.103477,7.18119],[122.145576,7.21946],[122.165771,7.27452],[122.169128,7.36527],[122.209557,7.44843],[122.218697,7.46091],[122.265381,7.46334],[122.35643,7.46441],[122.346657,7.44194],[122.345833,7.4225],[122.367767,7.39389],[122.383713,7.39527],[122.391037,7.38524],[122.379936,7.37241],[122.381317,7.36117],[122.36319,7.33536],[122.329117,7.31299],[122.303047,7.33528],[122.290756,7.32107],[122.289772,7.27502],[122.280907,7.26505],[122.279442,7.23056],[122.266823,7.22727],[122.265831,7.20944],[122.246948,7.18861],[122.260193,7.15929],[122.247688,7.13537],[122.258568,7.12541],[122.256668,7.11056],[122.243401,7.10038],[122.233414,7.08317],[122.228554,7.0866],[122.21389,7.07345],[122.21167,7.03361],[122.204987,7.02622],[122.184723,6.97444],[122.18528,6.95222],[122.160553,6.93139],[122.159447,6.91611],[122.126106,6.89139],[122.108322,6.88755],[122.059669,6.91097],[122.025284,6.92],[121.990417,6.93968],[121.972839,6.95467],[121.962502,6.94722],[121.948898,6.95477],[121.922272,6.98966],[121.917778,7.02056],[121.897217,7.08194],[121.902779,7.11944],[121.90139,7.14597]]]]}},{"type":"Feature","properties":{"name":"Isabela City","cstc":"ZCIC"},"geometry":{"type":"MultiPolygon","coordinates":[[[[122.039848,6.74398],[122.032257,6.7344],[122.032494,6.68852],[122.064041,6.5763],[121.92617,6.578909],[121.930313,6.62673],[121.920647,6.64041],[121.917061,6.67502],[121.928047,6.66889],[121.94133,6.6764],[121.938606,6.68444],[121.955307,6.70052],[121.979446,6.71444],[121.987778,6.73222],[122.01368,6.7462],[122.039848,6.74398]]],[[[121.991943,6.74639],[121.979424,6.73747],[121.981392,6.72861],[121.970833,6.71139],[121.955147,6.71556],[121.940552,6.71167],[121.940552,6.72861],[121.95472,6.74528],[121.984444,6.75417],[121.991943,6.74639]]]]}},{"type":"Feature","properties":{"name":"Davao City","cstc":"Davao City"},"geometry":{"type":"Polygon","coordinates":[[[125.505371,7.5584],[125.506927,7.45432],[125.506332,7.42792],[125.511559,7.38791],[125.511383,7.33069],[125.509247,7.23922],[125.537773,7.24415],[125.61422,7.24421],[125.620338,7.25404],[125.658783,7.28236],[125.673592,7.30215],[125.714622,7.30018],[125.713608,7.29306],[125.697777,7.29278],[125.678337,7.2675],[125.681107,7.255],[125.660278,7.25111],[125.648361,7.23768],[125.64946,7.19317],[125.662827,7.15286],[125.664146,7.1239],[125.649323,7.09558],[125.626709,7.0809],[125.626106,7.07083],[125.609871,7.04972],[125.574577,7.03786],[125.563332,7.04611],[125.536102,7.03887],[125.489067,6.98435],[125.484718,6.96895],[125.436684,6.96835],[125.405838,6.9655],[125.386124,6.96714],[125.297157,6.96623],[125.258331,6.96222],[125.266724,6.9967],[125.264038,7.00516],[125.27845,7.02194],[125.312286,7.02031],[125.309868,7.03756],[125.28923,7.06035],[125.287483,7.08802],[125.292824,7.10223],[125.284157,7.12294],[125.241241,7.1584],[125.231216,7.17488],[125.226837,7.20425],[125.245193,7.252],[125.234016,7.32649],[125.226784,7.35225],[125.247169,7.37824],[125.242477,7.42405],[125.242943,7.46829],[125.250526,7.4729],[125.264679,7.50371],[125.260643,7.54604],[125.253639,7.56478],[125.324921,7.56806],[125.388344,7.56877],[125.448517,7.56723],[125.505371,7.5584]]]}}]}